<?xml version="1.0" encoding="UTF-8"?>
<kml xmlns="http://www.opengis.net/kml/2.2" xmlns:gx="http://www.google.com/kml/ext/2.2" xmlns:kml="http://www.opengis.net/kml/2.2" xmlns:atom="http://www.w3.org/2005/Atom">
<Document>
	<gx:CascadingStyle kml:id="__managed_style_2B0FF149333B4064547C">
		<Style>
			<IconStyle>
				<scale>1.2</scale>
				<Icon>
					<href>https://maps.google.com/mapfiles/kml/pushpin/ylw-pushpin.png</href>
				</Icon>
			</IconStyle>
			<LabelStyle>
			</LabelStyle>
			<LineStyle>
				<color>ffc06b5c</color>
				<width>4.5</width>
			</LineStyle>
			<PolyStyle>
			</PolyStyle>
			<BalloonStyle>
			</BalloonStyle>
		</Style>
	</gx:CascadingStyle>
	<gx:CascadingStyle kml:id="__managed_style_17E329D65F3B4064547C">
		<Style>
			<IconStyle>
				<Icon>
					<href>https://maps.google.com/mapfiles/kml/pushpin/ylw-pushpin.png</href>
				</Icon>
			</IconStyle>
			<LabelStyle>
			</LabelStyle>
			<LineStyle>
				<color>ffc06b5c</color>
				<width>3</width>
			</LineStyle>
			<PolyStyle>
			</PolyStyle>
			<BalloonStyle>
			</BalloonStyle>
		</Style>
	</gx:CascadingStyle>
	<StyleMap id="__managed_style_0E964D86513B4064547C">
		<Pair>
			<key>normal</key>
			<styleUrl>#__managed_style_17E329D65F3B4064547C</styleUrl>
		</Pair>
		<Pair>
			<key>highlight</key>
			<styleUrl>#__managed_style_2B0FF149333B4064547C</styleUrl>
		</Pair>
	</StyleMap>
	<Placemark id="082B4F0BA83B405E11FB">
		<name>Circuito</name>
		<styleUrl>#__managed_style_0E964D86513B4064547C</styleUrl>
		<LineString>
			<tessellate>1</tessellate>
			<coordinates>
				101.7383702006397,2.760758076076449,0 101.7329477052045,2.760335278756989,0 101.7327007860104,2.760423061660949,0 101.7326101360465,2.760626350552009,0 101.7326629050996,2.760826133443004,0 101.7328664606545,2.760973218676038,0 101.7332977172748,2.760844725068064,0 101.7335253109271,2.760913104523266,0 101.733589959859,2.761102182867221,0 101.7331964443824,2.761682545610855,0 101.7330632421227,2.76236175567284,0 101.7331933555924,2.76304468269849,0 101.7336242103673,2.76364491638124,0 101.7340975166861,2.763903450121188,0 101.7356933393188,2.76445496003789,0 101.7372710424366,2.765100424984293,0 101.7374843148781,2.765156648020635,0 101.7376221704736,2.765069184042373,0 101.7380734829529,2.762885674319999,0 101.7383589972945,2.762479888790195,0 101.7389178980452,2.762212653426072,0 101.7394159751832,2.762271832617304,0 101.7397503589552,2.762481660293067,0 101.7402173863727,2.762908371867635,0 101.740808427105,2.763000415541561,0 101.7412804981263,2.762746312123994,0 101.7430172676782,2.760721906610041,0 101.7430438239822,2.760583330449799,0 101.7427766223418,2.759942094831344,0 101.7426765171567,2.759771895447848,0 101.7424742186646,2.75970729095874,0 101.7384198917043,2.759341897354979,0 101.7383200272326,2.759167003175773,0 101.7383998108914,2.759023771660954,0 101.7390679684249,2.758632298130002,0 101.7392530117551,2.758297236985317,0 101.7392845737144,2.757819101128575,0 101.7391402152136,2.757215567595763,0 101.7388197486018,2.756709947843792,0 101.7385648644688,2.756615390721526,0 101.7383467470106,2.756715473076763,0 101.7364877557919,2.758245646259468,0 101.7361242576558,2.758338602264842,0 101.7352086102697,2.757913694883015,0 101.7346930515825,2.757842034866444,0 101.7341189437653,2.757978742699583,0 101.7337165961028,2.75830270889695,0 101.7335853246947,2.758684037212895,0 101.7337049592857,2.758909471252556,0 101.733936339728,2.758993013327975,0 101.7413789357763,2.760357041113794,0 101.7415665947615,2.760498069972692,0 101.7415811728861,2.760717083398364,0 101.7414795786615,2.760916756180437,0 101.7412762994434,2.760988287967018,0 101.7383759938223,2.760762419346976,0 
			</coordinates>
		</LineString>
	</Placemark>
</Document>
</kml>
